[{"OBJECT_NAME":"ONEWEB-0542","OBJECT_ID":"2022-166E","EPOCH":"2026-03-09T21:52:20.359200","MEAN_MOTION":13.21823683,"ECCENTRICITY":0.00012716,"INCLINATION":87.9173,"RA_OF_ASC_NODE":263.759,"ARG_OF_PERICENTER":92.3649,"MEAN_ANOMALY":267.763,"EPHEMERIS_TYPE":0,"CLASSIFICATION_TYPE":"U","NORAD_CAT_ID":54646,"ELEMENT_SET_NO":999,"REV_AT_EPOCH":15842,"BSTAR":-0.00015680715,"MEAN_MOTION_DOT":-5.2e-7,"MEAN_MOTION_DDOT":0},{"OBJECT_NAME":"DELTA 1 DEB","OBJECT_ID":"1975-052GB","EPOCH":"2026-03-09T14:19:55.494048","MEAN_MOTION":13.15301695,"ECCENTRICITY":0.0176448,"INCLINATION":99.5963,"RA_OF_ASC_NODE":289.5796,"ARG_OF_PERICENTER":1.8048,"MEAN_ANOMALY":54.92,"EPHEMERIS_TYPE":0,"CLASSIFICATION_TYPE":"U","NORAD_CAT_ID":21506,"ELEMENT_SET_NO":999,"REV_AT_EPOCH":66350,"BSTAR":0.0013498,"MEAN_MOTION_DOT":5.09e-6,"MEAN_MOTION_DDOT":0}]
